STARLINK-2219           
1 48569U 21041S   26068.46747336  .00008520  00000+0  29928-3 0  9999
2 48569  53.1592 127.7423 0001494  99.2629 260.8541 15.30217810265243
CS2                     
1 49262U 21088C   26068.73485932  .00018033  00000+0  56178-3 0  9999
2 49262  97.3928 134.2907 0011637  82.3491 277.9072 15.33255930245263
