[{"OBJECT_NAME":"STARLINK-2219","OBJECT_ID":"2021-041S","EPOCH":"2026-03-09T11:13:09.698304","MEAN_MOTION":15.3021781,"ECCENTRICITY":0.0001494,"INCLINATION":53.1592,"RA_OF_ASC_NODE":127.7423,"ARG_OF_PERICENTER":99.2629,"MEAN_ANOMALY":260.8541,"EPHEMERIS_TYPE":0,"CLASSIFICATION_TYPE":"U","NORAD_CAT_ID":48569,"ELEMENT_SET_NO":999,"REV_AT_EPOCH":26524,"BSTAR":0.00029927791,"MEAN_MOTION_DOT":8.52e-5,"MEAN_MOTION_DDOT":0},{"OBJECT_NAME":"CS2","OBJECT_ID":"2021-088C","EPOCH":"2026-03-09T17:38:11.846112","MEAN_MOTION":15.3325593,"ECCENTRICITY":0.00116375,"INCLINATION":97.3928,"RA_OF_ASC_NODE":134.2907,"ARG_OF_PERICENTER":82.3491,"MEAN_ANOMALY":277.9072,"EPHEMERIS_TYPE":0,"CLASSIFICATION_TYPE":"U","NORAD_CAT_ID":49262,"ELEMENT_SET_NO":999,"REV_AT_EPOCH":24526,"BSTAR":0.0005617759,"MEAN_MOTION_DOT":0.00018033,"MEAN_MOTION_DDOT":0}]
